[{"OBJECT_NAME":"TIANMU-1 09","OBJECT_ID":"2023-101C","EPOCH":"2026-03-09T22:17:34.703232","MEAN_MOTION":15.29080822,"ECCENTRICITY":0.00049013,"INCLINATION":97.267,"RA_OF_ASC_NODE":121.1263,"ARG_OF_PERICENTER":139.4293,"MEAN_ANOMALY":220.7314,"EPHEMERIS_TYPE":0,"CLASSIFICATION_TYPE":"U","NORAD_CAT_ID":57401,"ELEMENT_SET_NO":999,"REV_AT_EPOCH":14647,"BSTAR":0.00030540035,"MEAN_MOTION_DOT":8.553e-5,"MEAN_MOTION_DDOT":0},{"OBJECT_NAME":"STARLINK-36557","OBJECT_ID":"2026-012H","EPOCH":"2026-03-09T23:10:02.701920","MEAN_MOTION":15.27593449,"ECCENTRICITY":0.00012302,"INCLINATION":42.999,"RA_OF_ASC_NODE":312.8687,"ARG_OF_PERICENTER":254.5473,"MEAN_ANOMALY":105.5243,"EPHEMERIS_TYPE":0,"CLASSIFICATION_TYPE":"U","NORAD_CAT_ID":67500,"ELEMENT_SET_NO":999,"REV_AT_EPOCH":780,"BSTAR":0.0010436587,"MEAN_MOTION_DOT":0.0002858,"MEAN_MOTION_DDOT":0}]
